caddress_id,country,street,postcode,city
A01HQP4D79GMACY6B091Y86JFQ8,United Kingdom,Debs,6334,Leeds
A01HQP4D79H6FYF1FJBR8NKJBAC,Netherlands,Vidon,H90 6WL,Breda
A01HQP4D79K1Y43991ZMVTFVEXY,United Kingdom,Towne,4835-541,Cardiff
A01HQP4D79MK6YVPAGWW38ECQG2,United Kingdom,Harper,K7V,Coventry
A01HQP4D79PWPXRJNFASHJCWKQZ,United Kingdom,New Castle,161140,Birmingham
A01HQP4D79RCQFK9AK3EM5YBVGD,United Kingdom,Londonderry,SQ90 0RR,Portsmouth
A01HQP4D79S0V7WGER3B3D3Z2RE,France,Carey,162673,Strasbourg
A01HQP4D79V3JZ4HYEXME27YHJQ,United States,Bellgrove,JJ8 2WW,Chicago
A01HQP4D79WJMD7CN7EF3BJ6VD4,Austria,Farmco,RL47 3TW,Vienna
A01HQP4D79X8DSR8JMMMJZSSRJS,United Kingdom,Nobel,18800-000,London
A01HQP4D79YW57ABEGAZ0GA3ZZY,United Kingdom,Novick,262 80,Leeds
A01HQP4D79ZZ9615DKHBV7404FJ,Denmark,Cambridge,EB25 1JI,Gentofte
A01HQP4D7A06T5V0CVJDKRT5KV8,Spain,Sherman,86054 CEDEX 9,Barcelona
A01HQP4D7A1Y09EDEC7ACF0C9Q8,United Kingdom,Crownhardt,V7 0BK,Nottingham
A01HQP4D7A39P0P1D5XK0QKDJYZ,Germany,Washington,P4 3WC,Frankfurt
A01HQP4D7A5YJAFRYAPG8S7ZJTD,United Kingdom,Macpherson,J9 6BR,Aberdeen
A01HQP4D7A7NHVZEW25GDVPJHYS,United Kingdom,Mallard,747 33,London
A01HQP4D534AMED8FCR3VRVT8H2,United Kingdom,Memorial,CH80 6HA,Manchester
A01HQP4D537NN4G30BJC2EE8324,Austria,Dorton,C1 3HT,Salzburg
A01HQP4D53AEZ373DTF7HQEQ8A1,Spain,Chinook,R26 2NG,Zaragoza
A01HQP4D53CCA5H6JT37T766HXV,United Kingdom,Coolidge,O6 7HA,Southampton
A01HQP4D53FAMBW98YMSJB2Q38T,United States,Monument,Y5 8JZ,New York City
A01HQP4D53HMQYWWEMKH95JM87J,United Kingdom,Reindahl,LH66 0ZY,Manchester
A01HQP4D53MKKN9H2FM2RC6CZ5E,Northern Ireland,Victoria,KC50 3CN,Lisburn
A01HQP4D53PGSEARGGQK2RQKNCZ,United Kingdom,Lerdahl,51601,London
A01HQP4D53RV4KCYWEYW4D1KH3A,Switzerland,Rockefeller,81506 CEDEX,Bern
A01HQP4D53T6ZRWE252GCPB411Q,United States,Mcbride,W17 7TX,Seattle
A01HQP4D53XJJF91082R462FZ28,United Kingdom,Crownhardt,27260,London
A01HQP4D53Z2YVHDAZTFJD0438T,Germany,2nd,VR8 2EU,D¨¹sseldorf
A01HQP4D541H57DHFDDVRYTFRGK,Sweden,Petterle,4950-703,Gothenburg
A01HQP4D5442Y7WW1GGBACC53NP,United Kingdom,Duke,Y39 2CV,Hull
A01HQP4D546K2AXK0R1XXD37G1K,United Kingdom,Anhalt,MD6 8SM,Reading
A01HQP4D548R3EB3VWBSCJVEB6W,United Kingdom,Haas,3100,London
A01HQP4D54ARTAPR25KY7W60EWH,China,Dovetail,VU3 2WT,Wuhan
A01HQP4D54BZGMB2E5HJ13W460W,United Kingdom,Ridgeview,31110,Leicester
A01HQP4D54DPQVEMSXBGQQ73XFR,India,Dottie,794,Kolkata
A01HQP4D54F1FP8FYXKN349T6KG,United Kingdom,Bowman,86083 CEDEX 9,London
A01HQP4D54HF1N8MK7MHKFJ11NV,United Kingdom,Muir,X6 7FX,London
A01HQP4D54JBHRN0WKMF9KCCH64,United Kingdom,Cardinal,21-404,London
A01HQP4D54MX9HBVBV1GTGNVRS3,United Kingdom,Magdeline,KW05 9VJ,London
A01HQP4D54P3RN3MK118PAWYYQK,Belgium,Tennyson,IY93 4IS,Ghent
A01HQP4D54RR7VSMZWXAC9VX8QB,United Kingdom,Ridgeview,B6 0CG,Coventry
A01HQP4D54S2TR2YTPPTF73FKMM,United Kingdom,Burning Wood,M18 4AJ,Glasgow
A01HQP4D54VYC92C0STGV3G0QTP,United Kingdom,Oneill,I1 7WF,London
A01HQP4D54X29J00GVKTFMTQWK9,China,Grover,GP11 4WZ,Shanghai
A01HQP4D54YSMQP43EP8TNQJD6D,United Kingdom,Johnson,Y5 3CN,Bristol
A01HQP4D54ZK59EDDW3BQM1VJ1Z,United Kingdom,Hanover,S91 2AL,London
A01HQP4D5504BH6SBMYKSRJDJMH,United Kingdom,Dayton,A21 6RL,Edinburgh
A01HQP4CZRFKDNFC0C32JWJQ8MJ,United Kingdom,Prentice,47600-000,London
A01HQP4CZRKXSAA26F96H4ZVFFS,Northern Ireland,Arkansas,6344,Castlereagh
A01HQP4CZRNT5AHPHSHC6E9MN27,United Kingdom,Golf,GZ37 8CY,Newcastle upon Tyne
A01HQP4CZRRZBQWP6DFDMQH5YW4,United Kingdom,Shopko,164020,Leeds
A01HQP4CZRTG3C2Q7YT1XF4FB24,United Kingdom,Buell,S54 1VQ,London
A01HQP4CZRWFWBFMES4C8NXFR4W,United Kingdom,Kipling,S2 2VY,Cardiff
A01HQP4CZRZE1MF5H9EQ9S8HC4P,United States,Morrow,C14 4GB,"Washington, D.C."
A01HQP4CZS21RC51RBV566WXWVX,United Kingdom,Amoth,83320-000,London
A01HQP4CZS4G5XQQ535V2FX4T8B,United States,Pine View,HW7 4RS,Houston
A01HQP4CZS6TAB42VFCJJSEYVA9,Netherlands,Spenser,S24 6HP,Nijmegen
A01HQP4CZS9PD19FKHFBFRKGD0B,United Kingdom,Corscot,Z26 7QG,London
A01HQP4CZSCTBKSQFCEJ353C244,United Kingdom,Toban,10030,Glasgow
A01HQP4CZSEMT27PCR885R67G5E,Denmark,Sloan,M9 5MN,Kolding
A01HQP4CZSH057MT75XN62G6298,United Kingdom,Parkside,YU88 4VV,London
A01HQP4CZSK1CGWZQRE5C2KJS7F,Austria,Caliangt,L-5754,Villach
A01HQP4CZSP222FPEQ23GTSQ51T,South Korea,Trailsway,LV37 6GE,Seoul
A01HQP4CZSS4YM9NTD1VEAA7N5W,United Kingdom,Norway Maple,527-0087,Belfast
A01HQP4CZSVVZD8KMYB6X1KFC15,United Kingdom,Sunbrook,ON06 9NW,Hull
A01HQP4CZSYTYTH0P6MTCP8EERM,Belgium,Sachtjen,U6 6MO,Brussels
A01HQP4CZT0W140ANJBYZ815JEB,United Kingdom,Montana,69000-000,Sheffield
A01HQP4CZT34M8A42CQY33KHS23,Belgium,Northport,94631 CEDEX 1,Charleroi
A01HQP4CZT68YPNV9P8ZWCJHPST,United Kingdom,Brown,NS28 0IM,Cardiff
A01HQP4CZT8AWRAFD36CATBH1JF,Sweden,Fair Oaks,9201,Stockholm
A01HQP4CZTBCJ4YRSHQPSGNPQCT,Scotland,Lunder,L-4354,Edinburgh
A01HQP4CZTDY0XFPV2F9Z3SRH2E,United Kingdom,Helena,NW5 0PH,Manchester
A01HQP4CZTFTG4F9BVRQ2PKTDWY,United Kingdom,Sunbrook,650,Birmingham
A01HQP4CZTGP0AP9P8NGRP3G5E1,United States,Charing Cross,2405,New York City
A01HQP4CZTJ22JDPA0859N501FB,United Kingdom,Declaration,753 62,Edinburgh
A01HQP4CZTM8W68DCXCKRCGTJVD,United Kingdom,Granby,J4 2AP,Edinburgh
A01HQP4CZTNZ7C1EG36C4ADQYQP,United Kingdom,Grim,TH8 7KW,Leeds
A01HQP4CZTQM1GGNF702TD5X3DR,United Kingdom,Dottie,XE00 4CD,London
A01HQP4D2T80HNT1JAF6CQ32KRD,United Kingdom,Sunfield,164 91,London
A01HQP4D2TBYAWYY5AFYS7SK90T,United Kingdom,Northfield,96960,Glasgow
A01HQP4D2TEBVRBKV3W36JW8970,Germany,Summerview,N92 9LE,D¨¹sseldorf
A01HQP4D2TGNHS6GGJ9SWN2YKAN,United States,Cardinal,63-460,Fort Worth
A01HQP4D2TJ2QRVTJPQE30F821C,United Kingdom,Manufacturers,H4 2FB,Manchester
A01HQP4D2TMV6QTFY71HRC7NRH1,United Kingdom,Florence,W7 2RZ,London
A01HQP4D2TP66E56ZJRC48SKK77,United Kingdom,Chive,SE7 0PR,Coventry
A01HQP4D2TRK6TEP49N4CH3915P,Italy,Boyd,GE37 0EG,Milan
A01HQP4D2TTE0D9HZSECY4VWVAF,United Kingdom,Cambridge,LM09 6BJ,Aberdeen
A01HQP4D2TW6K75NCE477A9N86G,Denmark,Burrows,1135,Aalborg
A01HQP4D2TY1JZT2RDSN0GC7XMM,France,Springview,UO2 1NV,Nice
A01HQP4D2V199M8W9PAVG7QWFPP,Belgium,South,SC3 8EN,Mons
A01HQP4D2V358RB2397DG2K78YF,United Kingdom,Alpine,183 65,Edinburgh
A01HQP4D2V5AXN6ZN8RF1FPZ2M6,United States,Westend,39440-000,Charlotte
A01HQP4D2V72D1461KYDFR6C8GC,United Kingdom,Mockingbird,IA0 5MA,Bristol
A01HQP4D2V9FPZ4D6NJFB3E0EY1,United States,Truax,HJ14 9RE,Jacksonville
A01HQP4D2VBVN6GK9QJ0Y1HAKST,United Kingdom,Loftsgordon,48120,Nottingham
A01HQP4D2VEC6ZQV5SZN1WD45A7,United Kingdom,Oak,301767,London
A01HQP4D2VG10065GP60QK4M8YM,United Kingdom,Harbort,CF5 8VT,London
A01HQP4D2VJ6T87S46JE8N03AGF,United Kingdom,Ronald Regan,R8 3QL,Birmingham
A01HQP4D2VMM100ERKDQ0GS7G0X,Wales,Charing Cross,602 24,Newport
A01HQP4D2VP32P3WH92TQT40T4Y,Netherlands,Thackeray,LS5 2LL,Groningen
A01HQP4D2VR91YDK4EYJRYD81YN,United Kingdom,Bashford,14790-000,Coventry
A01HQP4D2VTA5RGH747FM63JYYA,United Kingdom,Oxford,55515-000,Edinburgh
A01HQP4D2VWPGW3D2Q0R3VMVSPK,Scotland,Waywood,32-765,Inverness
A01HQP4D2VXMCFZ9641TANEXEK4,United States,Kropf,S3 5KB,Fort Worth
A01HQP4D2VZYR34GJH15YNZTNJZ,United Kingdom,Golden Leaf,06182 CEDEX 2,London
A01HQP4D2W1N72K3P4X0W3YJNV2,United Kingdom,Emmet,70593,London
A01HQP4D2W3CVBXXZ9ZC6J1HPQA,United Kingdom,Lighthouse Bay,F3 6ZP,Leeds
A01HQP4D2W4ASKT45D3ASGG4B4N,United Kingdom,Continental,DI8 8SO,Edinburgh
A01HQP4D2W6QTQ3Z8271KS5PJ6K,Finland,Farmco,KQ8 8OL,Jyv?skyl?
A01HQP4D3YRRSGHMMABAHXGDBJ0,Denmark,Melby,403 39,Gladsaxe
A01HQP4D3YV46Z93PZWBVQZNVYD,Italy,3rd,35435 CEDEX,Genoa
A01HQP4D3YYMY5N7RW55KG2H14D,Scotland,Lerdahl,ST8 9NX,Perth
A01HQP4D3Z0Q64DGDXXQ41Q7XNS,France,Hooker,K08 8WX,Bordeaux
A01HQP4D3Z2VM64A7KH8K6X17W0,Sweden,Maywood,J17 5YR,Norrk?ping
A01HQP4D3Z4M9KA8T4Q7EC7W42B,United Kingdom,Northport,789 01,Bristol
A01HQP4D3Z74YV85J7FE7QK71G4,United Kingdom,Meadow Valley,G82 2UN,London
A01HQP4D3Z9CWYBZKPMMM3F4T7W,United Kingdom,David,6401,Coventry
A01HQP4D3ZB6W8PZM6DDRNBMMJF,United Kingdom,Gateway,391710,London
A01HQP4D3ZD9ZFXYVMB4G2DSCQB,United Kingdom,Onsgard,BD09 4JX,Leeds
A01HQP4D3ZF33XQ3K69D32JHA1P,United Kingdom,Katie,F2 0YL,Birmingham
A01HQP4D3ZHX6Q8HT4BYDQ32SKX,France,8th,R07 8BC,Lille
A01HQP4D3ZKKCESPDJ50PQ66AE1,Italy,Veith,AW49 2PO,Palermo
A01HQP4D3ZP519AKKARPX46DK6T,Switzerland,Carberry,73209 CEDEX,Lucerne
A01HQP4D3ZRCG0P7BTEAK9W7GXK,South Korea,Thackeray,P72 3SC,BUnited Statesn
A01HQP4D3ZTMYN2HNG2Q0NEC1HC,United Kingdom,Daystar,2912,Glasgow
A01HQP4D3ZXB3V4KFR9YNFAPECK,Netherlands,Clarendon,L9S,The Hague
A01HQP4D3ZZ8CGVZG8XKABW711C,United Kingdom,Laurel,5602,Coventry
A01HQP4D40177G35BVC4J35BECE,United Kingdom,Village,752 01,Leeds
A01HQP4D4031Y2Z1Y6SRX31JD01,United Kingdom,Shelley,MD55 2YU,Reading
A01HQP4D406CYBHTRQ4CGSKRV62,United Kingdom,Butterfield,98824,Southampton
A01HQP4D4085SNCVWB1CWKSHY49,United Kingdom,Nevada,H4 2LG,Aberdeen
A01HQP4D40ACB50TCBS6Z3ZVC2G,United Kingdom,Manley,13540,Manchester
A01HQP4D40C72XTQ4XT96EKJAVB,Switzerland,Sunfield,34-321,Winterthur
A01HQP4D40EBTTZYRQRRWC4SFFB,United Kingdom,Bartelt,QB7 0BJ,London
A01HQP4D40FG2ZAAW8E4DE8DF95,United Kingdom,Sutherland,47134,Nottingham
A01HQP4D40HN0ZQV0X8A7X9P3J7,Ireland,Lerdahl,307450,Navan
A01HQP4D40KWRK2DHSQQV1HHRXH,United Kingdom,Fallview,FM27 0NK,Birmingham
A01HQP4D40MNYJNVB84QQY9A4HX,France,7th,KH3 7NS,Lyon
A01HQP4D40P08Y9RY57YCKMVT1V,United Kingdom,Eastlawn,31761,Portsmouth
A01HQP4D40QK0TH0TB67TSYEQGG,United Kingdom,Hovde,K5 2UQ,Newcastle upon Tyne
A01HQP4D592KSP10HK1VB4WCSZP,United Kingdom,Delladonna,EQ84 4KX,Birmingham
A01HQP4D594DB2PN5WW6JYV73A6,United Kingdom,Clove,77484 CEDEX,Manchester
A01HQP4D5960KBFETVPKBR9C9DS,Germany,Muir,MT34 3FJ,Cologne
A01HQP4D598K97JTYG4BZ2JGFEJ,United Kingdom,Cardinal,9512,Sheffield
A01HQP4D59B89MA8W9VVDJ92BQC,United Kingdom,Arrowood,QK44 9SK,Southampton
A01HQP4D59CFVGRPX44DVPGF45Z,Germany,Waywood,B23 9DD,Munich
A01HQP4D59G42V758BMGVQJDBTE,China,Mallard,AY0 4DQ,Guangzhou
A01HQP4D59JFMCZ34RSMVMJ8V37,United Kingdom,Holy Cross,Y4 8FI,London
A01HQP4D59MPXE11H1K0E9GXYDN,United Kingdom,Sherman,C0 2FR,Sheffield
A01HQP4D59PPKPF30MRJRZMEXVX,Ireland,Northland,M94 0FO,Drogheda
A01HQP4D59RK7JT6QBNAADVD718,United Kingdom,Brown,3120,Aberdeen
A01HQP4D59SV74AKEW69M6MAY9T,Portugal,Annamark,64-234,Porto
A01HQP4D59V5WSQ0CBCW5FQTAXN,United Kingdom,Cordelia,30160,Bristol
A01HQP4D59XVYDQ70EJ0VWVVRAW,United States,Amoth,V05 0VF,Los Angeles
A01HQP4D59Z10BYY3VQM5VKZVNG,United States,Vahlen,391 61,Chicago
A01HQP4D5A02YX4KJF6TXW5YQTZ,United Kingdom,Elmside,175147,London
A01HQP4D5A2AQ4FYNP75GXNCG87,United Kingdom,Heffernan,Z9 2IU,London
A01HQP4D5A4Y9E0QM299PHEAZC3,Austria,Jenna,6017,Wels
A01HQP4D5A5EB4MRGAFXD0J2501,Ireland,Cordelia,R96 8SY,Galway
A01HQP4D5A7YS92QJHPFD5B6XHC,United Kingdom,Del Mar,FH50 3FZ,Edinburgh
A01HQP4D5A94QWDV58YBY2C66VB,United Kingdom,Drewry,111711,London
A01HQP4D5AAKXT764F6G1F7NKSW,India,Logan,G40 2HQ,Jaipur
A01HQP4D5ACGHDYQWE5VF2QS399,Iceland,Bluejay,3308,Fjar?abygg?
A01HQP4D5AE1EYB9SAWWHVV8PRX,United Kingdom,4th,NX2 0XO,Leeds
A01HQP4D5AGJSFF4QQ7P64828RG,United Kingdom,Granby,9214,London
A01HQP4D5AHK914V400RDT9ZRY9,United Kingdom,Basil,X8 0HA,London
A01HQP4D5AKQQJVWK60G5NJJFEG,Netherlands,Jenifer,BE29 3XV,Groningen
A01HQP4D5AM61PXPXZJT7GC0MTC,United Kingdom,Dahle,982 81,Manchester
A01HQP4D5APNG4GPY8M0TR6ZT21,United Kingdom,Eliot,P0 0RJ,Edinburgh
A01HQP4D5AR9XB53Z74GNEHZ11V,United Kingdom,Hansons,K1 8QN,London
A01HQP4D5ATHKWYY7S2SKGZ8Z78,United Kingdom,Delaware,R3 7XE,London
A01HQP4D507VJM0BBS21WNH8CWP,United Kingdom,Rutledge,13220,Leicester
A01HQP4D50AY6YE362S7XP8GH76,United States,Rusk,9220,New York City
A01HQP4D50B56SP473FA7WAVPDZ,United Kingdom,Mcguire,2011,Glasgow
A01HQP4D50DVCBZTDDK6VKETCDG,United Kingdom,Oak Valley,J3 6VL,London
A01HQP4D50FH3JF0SHJ583XWP1K,United Kingdom,Meadow Valley,3609,Reading
A01HQP4D50G5C7ZJWTP5BXRNTTY,Japan,Eastwood,K62 1PQ,Kyoto
A01HQP4D50JYZ532Q8MWD0PKX1A,United States,Farmco,FD4 9HV,Columbus
A01HQP4D50MPKTFX2F1TWNF75VK,United Kingdom,Quincy,WN2 0BO,Aberdeen
A01HQP4D50P1KKK7JRN3YHKE0P2,Norway,Carey,612-8447,Sarpsborg
A01HQP4D50QG393SJ2G5PPTFBN8,United Kingdom,Gale,96310-000,Glasgow
A01HQP4D50S26C2DZXFDZV3WQ50,India,Vernon,EE0 0ZR,Chennai
A01HQP4D50X4YVYN2NPWPBZT43B,United Kingdom,Petterle,62-056,Manchester
A01HQP4D50Y527WKGT8R844JFNE,United Kingdom,Main,KE2 9MY,Leeds
A01HQP4D5106VVKP4HG2DGX9FWF,United Kingdom,John Wall,SB08 2RI,London
A01HQP4D512ANPFYF0NYHXM8W02,Belgium,Pierstorff,747 30,Li¨¨ge
A01HQP4D513XCF5AKNGWF3QWA4Q,Belgium,Carpenter,ZZ57 3BA,Namur
A01HQP4D515DXAG2CFM6TNQC0T4,United Kingdom,Sutherland,GG49 0JY,London
A01HQP4D517PJH9FMCQNW9F4YKD,Spain,Northview,303580,M¨¢laga
A01HQP4D51851DHW22Y9GJFKCYD,Portugal,Nova,72089,Vila Nova de Gaia
A01HQP4D51ABZ5ZKZXTV4BWC55F,United States,Eastlawn,U64 1HO,Philadelphia
A01HQP4D51C0D1QPNVCRZQYFN7S,Spain,Fair Oaks,4930-250,Madrid
A01HQP4D51D5MN7QB6BYMCQ6T5R,Sweden,Fuller,431890,V?ster?s
A01HQP4D51G53538HX1ANJM14NV,United Kingdom,Brickson Park,6818,London
A01HQP4D51HMDQXEC94VY7TK73Z,United Kingdom,Comanche,GN78 2VW,London
A01HQP4D51KNRW9VE3R05J0WYRJ,United Kingdom,Mayer,C08 5MO,Sheffield
A01HQP4D51NB5A44BPCS6Q0JCKM,United Kingdom,Sheridan,24-170,London
A01HQP4D51P5ES647J0FS3YG966,United Kingdom,Mallard,86165-000,London
A01HQP4D51RPR56N0QSVNM9KCZ4,Northern Ireland,Canary,5100-724,Belfast
