caddress_id,country,street,postcode,city
A01HQP4D6EPK4PAV4YMVS21GX2V,United Kingdom,Meadow Valley,97254 CEDEX,London
A01HQP4D6ET6MQRS9KMWDM703P7,United Kingdom,Sunbrook,O2 9RV,London
A01HQP4D6EY8KQN0752H4ECNKNP,Italy,Crest Line,E58 9ES,Turin
A01HQP4D6F1FXNC74SFQQ7ZGQ9D,United Kingdom,Merrick,Y88 2HZ,London
A01HQP4D6F3GARG3KX245M4PPQV,Switzerland,Kipling,1695,Basel
A01HQP4D6F6ZPPAN4N3V2ZQ8F57,Switzerland,Reindahl,J2 3NQ,Winterthur
A01HQP4D6F9N1GXR5ZRXN0XNMC3,United Kingdom,Fulton,G9 6II,London
A01HQP4D6FCKXJHEP749D1GRP2M,United Kingdom,Johnson,WU4 5YB,Belfast
A01HQP4D6FF6CX0GT0A03JE1T9E,Iceland,Roth,29-100,Reykjanesb?r
A01HQP4D6FJEMVGS7WS8YWE6C54,United Kingdom,Susan,E10 8YF,London
A01HQP4D6FMJNXQY9RDQ422XQ92,United Kingdom,Homewood,O9 3FK,London
A01HQP4D6FQAZK7HVY6Z977F7R3,United Kingdom,Steensland,VV0 5RQ,Edinburgh
A01HQP4D6FT82R95B43M7C64Y3Y,United Kingdom,Sage,DM5 2YT,London
A01HQP4D6FXP31471V7T0SJK30N,Sweden,Roxbury,YN6 2HP,J?nk?ping
A01HQP4D6FZH084M1Y5DZ77XRB5,United Kingdom,Everett,LY26 2WV,Leeds
A01HQP4D6G2VMDVDTYDAGPB5Z03,United Kingdom,Lakewood Gardens,OU7 2JR,London
A01HQP4D6G3RMM1NGN0HQMVJ8WC,Norway,Hudson,120 30,Kristiansand
A01HQP4D6G4CZ2Z5B0R1WEPRX7T,United Kingdom,Surrey,9801,London
A01HQP4D6G5A1NX4A9Q3YF0C7T7,United Kingdom,Bunker Hill,LB53 0NV,Edinburgh
A01HQP4D6G63QYFEPS3ZG06VKXA,Denmark,Gale,H27 0WK,Aarhus
A01HQP4D6G7BS6MTXNB04HDMRSH,United Kingdom,5th,O9 5NG,Leicester
A01HQP4D6G89VRB9JW4W2ZE1K0T,United Kingdom,La Follette,3525-405,Edinburgh
A01HQP4D6G97HT7QDVZRK448ZVS,United States,Nevada,J5 7UW,Phoenix
A01HQP4D6GBVATM75E4CEPE073P,United States,Schiller,S8,Denver
A01HQP4D6GC0SMN3P7WTA7ZYV51,Portugal,Gerald,2701,Aveiro
A01HQP4D6GDV96PKC2B4EYHFMMD,China,Kropf,10805,Tianjin
A01HQP4D6GE7Q8Z98BEXSFA9FSE,United Kingdom,Susan,362-0025,Leeds
A01HQP4D6GFYMC3S7FHBTKQ7782,South Korea,Hagan,D28 6VZ,Suwon
A01HQP4D6GG30SGNVY3MQV665YE,United Kingdom,Darwin,G27 3OG,Reading
A01HQP4D6GHY9MX7VVKBV4FT80C,United Kingdom,Killdeer,AH38 7VK,Leeds
A01HQP4D6GJ4TC98G6ZQYSDF3S2,Norway,Elgar,TH3 3LV,Stavanger
A01HQP4D5A9M1ESQ82FTN6A75F5,France,Summerview,8088,Nice
A01HQP4D5ADG024W0B01ZJKGDWA,Belgium,Artisan,J3 8WH,Li¨¨ge
A01HQP4D5AF65KZWACSPRQ5DHPJ,Sweden,Gale,UM58 7LZ,?rebro
A01HQP4D5AHJHKG757VFA61P6QY,Denmark,Dryden,462244,Copenhagen
A01HQP4D5AMWZ4JY5QG1YSDQ2AZ,Scotland,Buena Vista,34504 CEDEX,Glasgow
A01HQP4D5APNZYFP95MH9J9FZ3G,United Kingdom,Anhalt,MN6 0HH,Birmingham
A01HQP4D5AS2VKW51ZF00REHH7Z,Switzerland,Forster,YH48 6GZ,St. Gallen
A01HQP4D5AWK3CB9BMTXRKK1TNN,United Kingdom,Anniversary,J56 9KA,Manchester
A01HQP4D5AYTGB7PHEDKGQDTRJD,apan,West,963-5343,Tokyo
A01HQP4D5B0KF36KNB8WY8D6RH1,United Kingdom,Stephen,36104,London
A01HQP4D5B22RZ1SD5DETFBS47D,United States,Hoard,429315,Phoenix
A01HQP4D5B4G0SYVH71DK8EMXVQ,United Kingdom,Elka,722 25,Bristol
A01HQP4D5B790HX5YT74RTVVCAD,United Kingdom,Scofield,671360,Sheffield
A01HQP4D5B9WZXV40J2MHB1BAJK,United Kingdom,Amoth,S45 8TZ,Liverpool
A01HQP4D5BBN3NGPYNKJ92GKPDN,United Kingdom,Pierstorff,6060-089,London
A01HQP4D5BD6JG72TSRRDYQ5ZZN,United Kingdom,Packers,08013 CEDEX,London
A01HQP4D5BF68E5KBK27ABBX044,Austria,Dryden,Y9 3XY,Linz
A01HQP4D5BJ4SFJXZ0TAEJJ2VN2,United Kingdom,Novick,I6 5AZ,Leicester
A01HQP4D5BMCSVFR2B8B199C496,Belgium,Monica,3280,Leuven
A01HQP4D5BPW0Z298H66W0HC8Z8,United States,Magdeline,J8B,San Diego
A01HQP4D5BSWFHK45MM2PYVQXVE,United Kingdom,Maywood,656-2225,London
A01HQP4D5BV1M902CXNZ1HZHSP8,United Kingdom,Badeau,QZ9 4GU,London
A01HQP4D5BXW9BBGA3JM7A6XFND,United Kingdom,Eastwood,142672,Belfast
A01HQP4D5BZDQ70F7R1MDAPHC0R,Spain,Elmside,IT10 4YT,Bilbao
A01HQP4D5C1Q5ZN82ZNG61HJ70R,United Kingdom,Everett,Y01 3JA,London
A01HQP4D5C345NKY1ZA0R30Y9KY,Portugal,Saint Paul,U7 6YU,Funchal
A01HQP4D5C5FE93K9PMJKD538R5,United Kingdom,Sutherland,352412,Belfast
A01HQP4D5C6MRRXB3V77YZR1DM1,United Kingdom,Pleasure,27-630,Hull
A01HQP4D5C8HK57CP3AK3C3DZXP,United Kingdom,Moland,R56 8PQ,London
A01HQP4D5CAAB7844AM7220VCRT,Finland,Raven,629008,Lahti
A01HQP4D5CB7TKHQ6DT4YQW4VC9,United Kingdom,Prairieview,M47 4GT,London
A01HQP4D4VXJCQKA77NV3FBQ91D,United Kingdom,Bultman,QA01 7QC,Coventry
A01HQP4D4VY8TA81C6MCW4QW07Q,United Kingdom,Cherokee,BE8 9FJ,Nottingham
A01HQP4D4VZM5840N01SRATT8Q1,Iceland,Tomscot,N2L,K¨®pavogur
A01HQP4D4W0Q1WP9Y4KCNNTFKBP,United Kingdom,Eastwood,FP23 2WC,Sheffield
A01HQP4D4W1717GNJB6FMF5B5MG,United Kingdom,Del Sol,452630,London
A01HQP4D4W2W05172CPX33A26PT,United Kingdom,Loftsgordon,P62 8GI,Belfast
A01HQP4D4W3H22QXDPSVE45PZ70,United Kingdom,Arizona,92393 CEDEX,London
A01HQP4D4W4DFAQQFX2HK550EQ1,Netherlands,Annamark,BV86 4KA,Utrecht
A01HQP4D4W5NBZTKMEYGET2JK6K,United Kingdom,Heath,E3G,London
A01HQP4D4W7MJ82GGE9T859HX1S,United Kingdom,Alpine,21120,Portsmouth
A01HQP4D4W74P7GXCD6DM43GNNF,United Kingdom,Dahle,32127,Liverpool
A01HQP4D4W9KK9P1EG5PC1M9FX5,Italy,Grover,353624,Florence
A01HQP4D4WASZFK6MCMFMWJCHDR,United Kingdom,Truax,644002,Cardiff
A01HQP4D4WBFHB5AW91SPZK8KB6,United Kingdom,Coleman,L40 2YR,Leeds
A01HQP4D4WC58BHP4B380RV10S1,Sweden,Redwing,6203,Helsingborg
A01HQP4D4WD79XWR77CF0W96ENH,United Kingdom,Alpine,55340-000,Sheffield
A01HQP4D4WEVR0VZ4HCREKMMAA3,United Kingdom,Dunning,V2 8RQ,Manchester
A01HQP4D4WF2HE0BAMZ3KWS24JC,Ireland,Golf Course,JH93 5TT,Dublin
A01HQP4D4WG8FYV5YRKJW244DD5,United Kingdom,Elka,IP69 0RH,Cardiff
A01HQP4D4WHRJ3TD69YPF24PJDJ,United States,Weeping Birch,2970-267,"Washington, D.C."
A01HQP4D4WJA58B23DAWVK53JC8,Austria,Shopko,J0 1SM,Villach
A01HQP4D4WKJ40YBMQH498FTGGW,United Kingdom,Harper,S94 3RA,Hull
A01HQP4D4WMR9H5BCVJ0GJ3H1DG,United Kingdom,Dexter,9022,London
A01HQP4D4WN4HFX80CVG90JNDJ7,United States,Eliot,4550,Austin
A01HQP4D4WPEJ0ZFF4JPY6NPMDZ,United Kingdom,Rowland,18290-000,London
A01HQP4D4WQ0BNCPCZ9VTXSX17N,United Kingdom,South,413028,London
A01HQP4D4WRK64KA7SHGZZRW84C,China,Dayton,22212,Chongqing
A01HQP4D4WSKM7HRK76MS8QETW0,United Kingdom,Prentice,P2A,London
A01HQP4D4WT09Y4T38H5ZHGGAVE,United Kingdom,Columbus,1717,Leeds
A01HQP4D4WV9F9WEP9ZWPVMTHN6,Spain,Oxford,601423,Zaragoza
A01HQP4D4WWC28BH5WV1J69VGT8,Belgium,Sherman,QL1 1LO,Namur
A01HQP4D6JF6C0KA90XZC1NKHVK,United Kingdom,Express,7000,Hull
A01HQP4D6JMNQSQ6FWYZYTRDFQX,Spain,Dottie,U92 2NA,Palma
A01HQP4D6JQ1P4ZBB439CHS05X1,United Kingdom,Northfield,231 91,London
A01HQP4D6JTJKZ6593PWYDC32WE,Finland,Larry,32221,Espoo
A01HQP4D6JY5DEM2G87HPVTPTT1,United Kingdom,Hagan,5924,Bristol
A01HQP4D6K19HXRGW04M88F7PXZ,Portugal,Towne,51000,Porto
A01HQP4D6K568RC7GT44ETJX5GE,Scotland,Pennsylvania,AP3 7LM,Kirkcaldy
A01HQP4D6K8C8QB3BF9EG5T834W,United Kingdom,Pepper Wood,513 91,London
A01HQP4D6KCVMTK079T42ARQEW4,United Kingdom,Grover,JX61 0TI,London
A01HQP4D6KFXR9YM3H2AXDT789Y,United Kingdom,Veith,403800,Nottingham
A01HQP4D6KJVY9S43CCTP25C8R0,Austria,Paget,89193,Graz
A01HQP4D6KM454M1ASC2ZHYHG2X,United Kingdom,Sherman,K71 4RF,Birmingham
A01HQP4D6KPQV8N13B9NX37PZ7V,United States,Warbler,ZI6 5LS,Seattle
A01HQP4D6KR0QB0H3V39T7SCX3Y,United Kingdom,Kipling,X63 7CN,Leicester
A01HQP4D6KSDS578MN2SP5MFB2C,United States,Commercial,64-130,Houston
A01HQP4D6KWAFXXZ9KW80KADWNW,United Kingdom,Myrtle,7740,London
A01HQP4D6KY2CW66JYK1G4J5S75,United Kingdom,Gale,FD9 7PT,Nottingham
A01HQP4D6M0Y1P41C7KABS57VHD,United Kingdom,Gateway,3080-222,Birmingham
A01HQP4D6M1JHD284JS4XVDBCGX,United Kingdom,Westend,YF3 8YD,London
A01HQP4D6M31JPWW71HPDEYZMDM,Netherlands,Fairfield,1711,Amsterdam
A01HQP4D6M5N0XP4R9NZZJAF5R5,United Kingdom,Derek,190990,London
A01HQP4D6M6DJY0N0FK8DN55SY2,United Kingdom,Mandrake,9970-244,Leicester
A01HQP4D6M89EEBBXVCCQCAW54D,United Kingdom,Grayhawk,T40 7GO,Bristol
A01HQP4D6MG6QDG2XSRC9SXE70B,United Kingdom,Mayer,8209,Portsmouth
A01HQP4D6MJNSCDJRD23M7A3532,China,Forest Dale,513 01,Beijing
A01HQP4D6MK3BN93ECJQ8E7K4RS,United Kingdom,Hudson,EN27 9EG,London
A01HQP4D6MNYY20GXV58A6D6GJW,France,Kings,PP2 9WB,Nantes
A01HQP4D6MQJYMEWE8YT3TRZVBX,China,Spenser,100 52,Shanghai
A01HQP4D6MR8QKN37ND0CSF3XSB,United Kingdom,Fordem,65480-000,Sheffield
A01HQP4D6MTJF3NN7HMVBR9KNM0,Spain,Victoria,F51 1XH,Seville
A01HQP4D6MVQP06D5BCM6FADF4Q,United States,Arapahoe,35890,New York City
A01HQP4D6P0Z88ZPEGAV6CZZ8Z5,United Kingdom,Cordelia,78490,London
A01HQP4D6P2HCRXRTFMB2Y778DC,United Kingdom,Mcbride,U6 2WH,London
A01HQP4D6P4NPDXRNPWZJWSP8K4,United Kingdom,Pepper Wood,66622,London
A01HQP4D6P5WBMB22JXPW1FXS80,United Kingdom,Bartillon,J0 6FH,Edinburgh
A01HQP4D6P7W40W0GW86W2YWJ8M,United Kingdom,Vernon,5914,London
A01HQP4D6P93RM5QBTJQ649Z1M9,Belgium,Waxwing,2420-031,Leuven
A01HQP4D6PF2Q2V7C9HCXEHXGV7,United Kingdom,Blue Bill Park,FO02 3AE,Leicester
A01HQP4D6PHYV1NQ1XVZE9NSMSE,United Kingdom,Sommers,O16 2JS,Nottingham
A01HQP4D6PK41GC568FNYH0HD7H,United Kingdom,Vidon,9222,Leeds
A01HQP4D6PMTV5B8EJWQEWV1Y7V,Belgium,Knutson,Q5 3UW,Aalst
A01HQP4D6PPBEXTSZPKWH64AYTT,United Kingdom,Nova,2785-025,London
A01HQP4D6PR18JT16051Y0PHSNN,United Kingdom,Larry,B35 9WK,Glasgow
A01HQP4D6PWK3AEGXMJC74W36C6,United Kingdom,Tomscot,AV21 2AB,London
A01HQP4D6PYA2F0A1EZRM9CTFN8,United Kingdom,Northview,HZ86 7CV,London
A01HQP4D6PZNPS3B58RNHY06J7Y,United Kingdom,Veith,VX1 4NH,London
A01HQP4D6Q1GPAVF878R0AK6CMX,United Kingdom,Forest Run,WE09 8YK,Edinburgh
A01HQP4D6Q2668QNQZEHKB4YVW8,United Kingdom,Pennsylvania,Z73 2GA,Southampton
A01HQP4D6Q48A6JB99DVVEYGWBQ,Italy,Artisan,MZ90 6UF,Rome
A01HQP4D6Q6B2MT1KEZV1SN7MJM,China,Rieder,3712,Beijing
A01HQP4D6Q7JA9HNFVEFFVH8S3R,Norway,Pearson,MF7 0PV,Drammen
A01HQP4D6Q9M38Q7XWCW1E8MH3Z,Finland,Mandrake,HN97 8HY,Kuopio
A01HQP4D6QAR0FJ1J773NFRK3TC,Germany,Moose,T2 7BA,Cologne
A01HQP4D6QCVYC8C5YEGSZD8WF1,United Kingdom,Basil,W3 6DM,Manchester
A01HQP4D6QDTH1N8S7NHYD1G2S7,Northern Ireland,Washington,10607,Carrickfergus
A01HQP4D6QFJ07JFR8FV3YHXJWG,United Kingdom,Dayton,YM98 7GY,London
A01HQP4D6QG7WSNWEBFZS6GHGFB,United Kingdom,Kenwood,11-440,Coventry
A01HQP4D6QJX1QXBMPQHVM7DCAW,Switzerland,Novick,7933,LaUnited Statesnne
A01HQP4D6QKRR046CBBFNFZA5NR,China,1st,8223,Chengdu
A01HQP4D6QNN7MAY25SER5DJNR7,Switzerland,American,4905-014,Lugano
A01HQP4D6QPZC5DVTN72QAZ7PQK,United Kingdom,Old Gate,S6 2WZ,Manchester
A01HQP4D6QRRCZ480H655ENX9VS,Italy,Waubesa,F3 9QP,Naples
A01HQP4D4KWJN8EV22YYYREK0R9,United States,Stang,2510-037,New York City
A01HQP4D4M0RFRS6AQGT047NA6Z,Austria,Grover,694 24,Salzburg
A01HQP4D4M4BS462897896GE1TX,United States,Ronald Regan,22840,"Washington, D.C."
A01HQP4D4M7HZVV7KW8WVVY0JJZ,United Kingdom,Manley,611 24,London
A01HQP4D4MAJVHSJCFAABCZ2SAJ,United Kingdom,Boyd,UC44 5IA,London
A01HQP4D4MDJ22C98KNN1KXP2FC,United Kingdom,Golden Leaf,371,London
A01HQP4D4ME57GNXNN4QM0RG1FC,United Kingdom,Pine View,NS1 0TD,London
A01HQP4D4MG9BTDRBZJXPMMCKZR,Wales,Badeau,188855,Bridgend
A01HQP4D4MJ47MGZ929EYG391JR,United Kingdom,Pankratz,Z45 3SC,Leeds
A01HQP4D4MMTSY7TJXMS8T3XY9F,South Korea,Karstens,G6 8YX,Ulsan
A01HQP4D4MNP8SY9DZ5C1Y6P509,United Kingdom,Melrose,5152,London
A01HQP4D4MQ29SBEF8YQX93MF4C,Portugal,Lukken,U7 1VR,Set¨²bal
A01HQP4D4MSY256KEFQSG3BTKSS,United Kingdom,Dexter,368150,Bristol
A01HQP4D4MV3T2RE094CYEXB2GK,United Kingdom,Vernon,10807,Portsmouth
A01HQP4D4MWPEZXZN1NSQERHH18,United Kingdom,Columbus,35160-000,Leeds
A01HQP4D4MY52KDVHSN3WJPM9R1,United Kingdom,Londonderry,JO5 7AX,Belfast
A01HQP4D4N0MTZJXKCW4H9NGQ9B,China,Amoth,E8 7JO,Nanjing
A01HQP4D4N1Q2PAPXNDJ6VXBTAJ,Norway,Hazelcrest,54009 CEDEX,Trondheim
A01HQP4D4N38YV7Y0DZ445A5521,United Kingdom,Susan,T88 3CG,London
A01HQP4D4N57P44SKWR6SQ8Q9HB,United Kingdom,Delaware,XH4 7FD,Bristol
A01HQP4D4N6YSZBB39DD8596DDA,United Kingdom,Sunbrook,518-0875,Sheffield
A01HQP4D4N8Z7G3QNS18HAK9MJP,Switzerland,Waywood,11604,Bern
A01HQP4D4NAAFN7M2M0MSAQVJXB,Iceland,Erie,9220,Gar?ab?r
A01HQP4D4NBPDCJZCRPKNDE5713,Finland,Shoshone,30674,Helsinki
A01HQP4D4ND5DGQ95P9ZYWKAYPH,Sweden,Walton,658810,Uppsala
A01HQP4D4NF8C9Y92K5AF672ME7,United Kingdom,Sloan,K64 7YK,Southampton
A01HQP4D4NGWCETR1RWR1VXM529,United Kingdom,Ludington,OS97 2RJ,Sheffield
A01HQP4D4NJRSFE84EX528YB4MF,United Kingdom,Oriole,215,Manchester
A01HQP4D4NMFB1JZ8TPG7DS2S11,United Kingdom,Graceland,HL66 5QT,Birmingham
A01HQP4D4NP48QTBHG3J311TMC2,Wales,Moland,93691 CEDEX,Llanelli
A01HQP4D4NRDW1PXB9ECGZG0DVD,United Kingdom,Carpenter,AE91 6OH,Newcastle upon Tyne
A01HQP4D78TZCX81X42WB78345R,United Kingdom,Hoffman,B28 6YO,Reading
A01HQP4D78WKYWDEGCJE8SH61MC,United Kingdom,John Wall,PH8 4WP,Manchester
A01HQP4D78XSA9AWKBD9EJH79WH,United Kingdom,Pond,152,Coventry
A01HQP4D78ZXYGSBEC4REZB032Y,Spain,Rusk,3297,Palma
A01HQP4D791TPC18S6BK5F1P1BW,United Kingdom,Coleman,11130,London
A01HQP4D792GTC7SCF65QYSTQ4E,China,Delladonna,10801,Beijing
A01HQP4D794Z3DR4KP7AWJTKVKX,India,Quincy,7504,Ahmedabad
A01HQP4D795SKHXG9ACSF1V25E3,Germany,Quincy,B87 3GX,Dortmund
A01HQP4D797T67TNM63NP3JP21X,Austria,Lighthouse Bay,KV9 5UJ,Innsbruck
A01HQP4D798WSB8VNPPPHYSPHYY,United Kingdom,Twin Pines,R2 1ZH,Newcastle upon Tyne
A01HQP4D79ARNP1W1QR0TD9TZB5,Portugal,Stone Corner,658065,Braga
A01HQP4D79B7B2HP53PHTNFKWBM,United Kingdom,Comanche,853-0704,Manchester
A01HQP4D79DCYY3RMMTTE26S1QR,Switzerland,Lillian,96928,Lucerne
A01HQP4D79E2Q38VWJC47QXSWKV,Austria,Mayer,MH56 0NG,Linz
